{
  "type": "FeatureCollection",
  "features": [
    {
      "type": "Feature",
      "properties": {
        "OBJECT_NAME": "RASAT",
        "OBJECT_ID": "2011-044D",
        "EPOCH": "2025-11-29T19:54:40.612608",
        "MEAN_MOTION": 14.67879666,
        "ECCENTRICITY": 0.0021942,
        "INCLINATION": 98.0658,
        "RA_OF_ASC_NODE": 63.2788,
        "ARG_OF_PERICENTER": 103.8039,
        "MEAN_ANOMALY": 44.5345,
        "EPHEMERIS_TYPE": 0,
        "CLASSIFICATION_TYPE": "U",
        "NORAD_CAT_ID": 37791,
        "ELEMENT_SET_NO": 999,
        "REV_AT_EPOCH": 76393,
        "BSTAR": 0.00012024,
        "MEAN_MOTION_DOT": 6.41e-06,
        "MEAN_MOTION_DDOT": 0,
        "norad_id": 37791,
        "name": "RASAT",
        "group": "resource",
        "longitude_deg": NaN,
        "latitude_deg": NaN,
        "alt_km": NaN,
        "orbit_class": "HEO",
        "timestamp": "2025-11-30T04:58:49.601151+00:00"
      },
      "geometry": {
        "type": "Point",
        "coordinates": [
          NaN,
          NaN
        ]
      }
    },
    {
      "type": "Feature",
      "properties": {
        "OBJECT_NAME": "SRMSAT",
        "OBJECT_ID": "2011-058D",
        "EPOCH": "2025-11-29T19:19:54.653088",
        "MEAN_MOTION": 14.11504536,
        "ECCENTRICITY": 0.0011784,
        "INCLINATION": 19.97,
        "RA_OF_ASC_NODE": 186.2362,
        "ARG_OF_PERICENTER": 170.3145,
        "MEAN_ANOMALY": 277.4345,
        "EPHEMERIS_TYPE": 0,
        "CLASSIFICATION_TYPE": "U",
        "NORAD_CAT_ID": 37841,
        "ELEMENT_SET_NO": 999,
        "REV_AT_EPOCH": 72961,
        "BSTAR": 8.9711e-05,
        "MEAN_MOTION_DOT": 4.3e-06,
        "MEAN_MOTION_DDOT": 0,
        "norad_id": 37841,
        "name": "SRMSAT",
        "group": "resource",
        "longitude_deg": NaN,
        "latitude_deg": NaN,
        "alt_km": NaN,
        "orbit_class": "HEO",
        "timestamp": "2025-11-30T04:58:49.601223+00:00"
      },
      "geometry": {
        "type": "Point",
        "coordinates": [
          NaN,
          NaN
        ]
      }
    },
    {
      "type": "Feature",
      "properties": {
        "OBJECT_NAME": "PLEIADES 1A",
        "OBJECT_ID": "2011-076F",
        "EPOCH": "2025-11-29T20:27:07.265952",
        "MEAN_MOTION": 14.58541118,
        "ECCENTRICITY": 0.000146,
        "INCLINATION": 98.1837,
        "RA_OF_ASC_NODE": 46.8188,
        "ARG_OF_PERICENTER": 82.8894,
        "MEAN_ANOMALY": 52.3378,
        "EPHEMERIS_TYPE": 0,
        "CLASSIFICATION_TYPE": "U",
        "NORAD_CAT_ID": 38012,
        "ELEMENT_SET_NO": 999,
        "REV_AT_EPOCH": 74293,
        "BSTAR": 9.8685e-05,
        "MEAN_MOTION_DOT": 4.13e-06,
        "MEAN_MOTION_DDOT": 0,
        "norad_id": 38012,
        "name": "PLEIADES 1A",
        "group": "resource",
        "longitude_deg": NaN,
        "latitude_deg": NaN,
        "alt_km": NaN,
        "orbit_class": "HEO",
        "timestamp": "2025-11-30T04:58:49.601320+00:00"
      },
      "geometry": {
        "type": "Point",
        "coordinates": [
          NaN,
          NaN
        ]
      }
    },
    {
      "type": "Feature",
      "properties": {
        "OBJECT_NAME": "ZIYUAN 1-02C (ZY 1-02C)",
        "OBJECT_ID": "2011-079A",
        "EPOCH": "2025-11-29T21:21:43.699104",
        "MEAN_MOTION": 14.37988762,
        "ECCENTRICITY": 0.0006573,
        "INCLINATION": 98.435,
        "RA_OF_ASC_NODE": 40.1398,
        "ARG_OF_PERICENTER": 174.3559,
        "MEAN_ANOMALY": 296.7481,
        "EPHEMERIS_TYPE": 0,
        "CLASSIFICATION_TYPE": "U",
        "NORAD_CAT_ID": 38038,
        "ELEMENT_SET_NO": 999,
        "REV_AT_EPOCH": 73056,
        "BSTAR": 0.00018141,
        "MEAN_MOTION_DOT": 5.05e-06,
        "MEAN_MOTION_DDOT": 0,
        "norad_id": 38038,
        "name": "ZIYUAN 1-02C (ZY 1-02C)",
        "group": "resource",
        "longitude_deg": NaN,
        "latitude_deg": NaN,
        "alt_km": NaN,
        "orbit_class": "HEO",
        "timestamp": "2025-11-30T04:58:49.601333+00:00"
      },
      "geometry": {
        "type": "Point",
        "coordinates": [
          NaN,
          NaN
        ]
      }
    },
    {
      "type": "Feature",
      "properties": {
        "OBJECT_NAME": "ZIYUAN 3-1 (ZY 3-1)",
        "OBJECT_ID": "2012-001A",
        "EPOCH": "2025-11-29T21:08:17.465280",
        "MEAN_MOTION": 15.66240706,
        "ECCENTRICITY": 0.0002341,
        "INCLINATION": 97.1782,
        "RA_OF_ASC_NODE": 40.0187,
        "ARG_OF_PERICENTER": 42.4171,
        "MEAN_ANOMALY": 317.7271,
        "EPHEMERIS_TYPE": 0,
        "CLASSIFICATION_TYPE": "U",
        "NORAD_CAT_ID": 38046,
        "ELEMENT_SET_NO": 999,
        "REV_AT_EPOCH": 77295,
        "BSTAR": 0.00066708,
        "MEAN_MOTION_DOT": 0.0006905,
        "MEAN_MOTION_DDOT": 0,
        "norad_id": 38046,
        "name": "ZIYUAN 3-1 (ZY 3-1)",
        "group": "resource",
        "longitude_deg": NaN,
        "latitude_deg": NaN,
        "alt_km": NaN,
        "orbit_class": "HEO",
        "timestamp": "2025-11-30T04:58:49.601377+00:00"
      },
      "geometry": {
        "type": "Point",
        "coordinates": [
          NaN,
          NaN
        ]
      }
    },
    {
      "type": "Feature",
      "properties": {
        "OBJECT_NAME": "ARIRANG-3 (KOMPSAT-3)",
        "OBJECT_ID": "2012-025B",
        "EPOCH": "2025-11-29T20:58:11.746848",
        "MEAN_MOTION": 14.61684454,
        "ECCENTRICITY": 0.0006265,
        "INCLINATION": 98.3302,
        "RA_OF_ASC_NODE": 288.3678,
        "ARG_OF_PERICENTER": 18.4604,
        "MEAN_ANOMALY": 341.6823,
        "EPHEMERIS_TYPE": 0,
        "CLASSIFICATION_TYPE": "U",
        "NORAD_CAT_ID": 38338,
        "ELEMENT_SET_NO": 999,
        "REV_AT_EPOCH": 72222,
        "BSTAR": 0.0001321,
        "MEAN_MOTION_DOT": 6.09e-06,
        "MEAN_MOTION_DDOT": 0,
        "norad_id": 38338,
        "name": "ARIRANG-3 (KOMPSAT-3)",
        "group": "resource",
        "longitude_deg": NaN,
        "latitude_deg": NaN,
        "alt_km": NaN,
        "orbit_class": "HEO",
        "timestamp": "2025-11-30T04:58:49.601487+00:00"
      },
      "geometry": {
        "type": "Point",
        "coordinates": [
          NaN,
          NaN
        ]
      }
    },
    {
      "type": "Feature",
      "properties": {
        "OBJECT_NAME": "EXACTVIEW-1 (ADS-1B)",
        "OBJECT_ID": "2012-039C",
        "EPOCH": "2025-11-29T19:45:26.627040",
        "MEAN_MOTION": 14.24899393,
        "ECCENTRICITY": 0.0011315,
        "INCLINATION": 98.9634,
        "RA_OF_ASC_NODE": 81.9426,
        "ARG_OF_PERICENTER": 30.9455,
        "MEAN_ANOMALY": 329.2388,
        "EPHEMERIS_TYPE": 0,
        "CLASSIFICATION_TYPE": "U",
        "NORAD_CAT_ID": 38709,
        "ELEMENT_SET_NO": 999,
        "REV_AT_EPOCH": 69431,
        "BSTAR": 8.5063e-05,
        "MEAN_MOTION_DOT": 1.52e-06,
        "MEAN_MOTION_DDOT": 0,
        "norad_id": 38709,
        "name": "EXACTVIEW-1 (ADS-1B)",
        "group": "resource",
        "longitude_deg": NaN,
        "latitude_deg": NaN,
        "alt_km": NaN,
        "orbit_class": "HEO",
        "timestamp": "2025-11-30T04:58:49.601551+00:00"
      },
      "geometry": {
        "type": "Point",
        "coordinates": [
          NaN,
          NaN
        ]
      }
    },
    {
      "type": "Feature",
      "properties": {
        "OBJECT_NAME": "SPOT 6",
        "OBJECT_ID": "2012-047A",
        "EPOCH": "2025-11-29T20:11:33.410688",
        "MEAN_MOTION": 14.58583391,
        "ECCENTRICITY": 0.0001028,
        "INCLINATION": 98.1589,
        "RA_OF_ASC_NODE": 38.8622,
        "ARG_OF_PERICENTER": 98.5693,
        "MEAN_ANOMALY": 261.5623,
        "EPHEMERIS_TYPE": 0,
        "CLASSIFICATION_TYPE": "U",
        "NORAD_CAT_ID": 38755,
        "ELEMENT_SET_NO": 999,
        "REV_AT_EPOCH": 70399,
        "BSTAR": 9.382e-05,
        "MEAN_MOTION_DOT": 3.91e-06,
        "MEAN_MOTION_DDOT": 0,
        "norad_id": 38755,
        "name": "SPOT 6",
        "group": "resource",
        "longitude_deg": NaN,
        "latitude_deg": NaN,
        "alt_km": NaN,
        "orbit_class": "HEO",
        "timestamp": "2025-11-30T04:58:49.601609+00:00"
      },
      "geometry": {
        "type": "Point",
        "coordinates": [
          NaN,
          NaN
        ]
      }
    }
  ]
}