RASAT                   
1 37791U 11044D   25333.82963672  .00000641  00000+0  12024-3 0  9998
2 37791  98.0658  63.2788 0021942 103.8039  44.5345 14.67879666763934
SRMSAT                  
1 37841U 11058D   25333.80549367  .00000430  00000+0  89711-4 0  9992
2 37841  19.9700 186.2362 0011784 170.3145 277.4345 14.11504536729618
PLEIADES 1A             
1 38012U 11076F   25333.85216743  .00000413  00000+0  98685-4 0  9998
2 38012  98.1837  46.8188 0001460  82.8894  52.3378 14.58541118742938
ZIYUAN 1-02C (ZY 1-02C) 
1 38038U 11079A   25333.89008911  .00000505  00000+0  18141-3 0  9999
2 38038  98.4350  40.1398 0006573 174.3559 296.7481 14.37988762730566
ZIYUAN 3-1 (ZY 3-1)     
1 38046U 12001A   25333.88075770  .00069050  00000+0  66708-3 0  9992
2 38046  97.1782  40.0187 0002341  42.4171 317.7271 15.66240706772951
ARIRANG-3 (KOMPSAT-3)   
1 38338U 12025B   25333.87374707  .00000609  00000+0  13210-3 0  9998
2 38338  98.3302 288.3678 0006265  18.4604 341.6823 14.61684454722221
EXACTVIEW-1 (ADS-1B)    
1 38709U 12039C   25333.82322485  .00000152  00000+0  85063-4 0  9995
2 38709  98.9634  81.9426 0011315  30.9455 329.2388 14.24899393694315
SPOT 6                  
1 38755U 12047A   25333.84135892  .00000391  00000+0  93820-4 0  9996
2 38755  98.1589  38.8622 0001028  98.5693 261.5623 14.58583391703990
